IRIDIUM 159             
1 43578U 18061K   23261.84192923  .00000340  00000+0  11426-3 0  9998
2 43578  86.3937 115.6564 0002146  86.8536 273.2906 14.34219037269710
IRIDIUM 180             
1 43922U 19002A   23261.91118262  .00000397  00000+0  13473-3 0  9995
2 43922  86.3954  52.4554 0001931  96.6751 263.4664 14.34212918245333
IRIDIUM 176             
1 43923U 19002B   23261.83922490  .00001746  00000+0  27297-3 0  9991
2 43923  86.6085  52.5200 0002228  89.6360 270.5112 14.72251749251778
IRIDIUM 168             
1 43924U 19002C   23261.83508010  .00000464  00000+0  15859-3 0  9997
2 43924  86.3957  52.5363 0002059  93.8027 266.3404 14.34222762245303
IRIDIUM 173             
1 43925U 19002D   23261.82240114  .00000458  00000+0  15643-3 0  9999
2 43925  86.3953  52.4716 0002099  94.2455 265.8981 14.34221116245288
IRIDIUM 169             
1 43926U 19002E   23261.88400336  .00000173  00000+0  50082-4 0  9991
2 43926  86.4168  84.0806 0005006  62.6656 297.5051 14.38604617246121
IRIDIUM 172             
1 43927U 19002F   23261.88581782  .00000511  00000+0  17545-3 0  9999
2 43927  86.3952  52.4498 0002041  95.2807 264.8621 14.34216994245306
IRIDIUM 175             
1 43928U 19002G   23261.90097282  .00001837  00000+0  28745-3 0  9996
2 43928  86.1522  41.0272 0002191  91.5979 268.5488 14.72236679251771
